*******************************************************************************
Ephemeris / WWW_USER Mon Jul 15 19:04:55 2024 Pasadena, USA      / Horizons    
*******************************************************************************
Target body name: (2018 RD5)                      {source: JPL#11}
Center body name: Earth (399)                     {source: DE441}
Center-site name: Gemini South Obs., Cerro Pachon
*******************************************************************************
Start time      : A.D. 2018-Dec-21 23:53:00.0000 UT      
Stop  time      : A.D. 2018-Dec-22 09:29:00.0000 UT      
Step-size       : 1 minutes
*******************************************************************************
Target pole/equ : undefined
Target radii    : undefined                                                    
Center geodetic : 289.2634, -30.2406227, 2.71233  {E-lon(deg),Lat(deg),Alt(km)}
Center cylindric: 289.2634,5517.21435,-3194.81213 {E-lon(deg),Dxy(km),Dz(km)}
Center pole/equ : ITRF93                          {East-longitude positive}
Center radii    : 6378.137, 6378.137, 6356.752 km {Equator_a, b, pole_c}       
Target primary  : Sun
Vis. interferer : MOON (R_eq= 1737.400) km        {source: DE441}
Rel. light bend : Sun                             {source: DE441}
Rel. lght bnd GM: 1.3271E+11 km^3/s^2                                          
Small-body perts: Yes                             {source: SB441-N16}
Atmos refraction: NO (AIRLESS)
RA format       : HMS
Time format     : CAL 
Calendar mode   : Mixed Julian/Gregorian
RTS-only print  : NO       
EOP file        : eop.240715.p241008                                           
EOP coverage    : DATA-BASED 1962-JAN-20 TO 2024-JUL-15. PREDICTS-> 2024-OCT-07
Units conversion: 1 au= 149597870.700 km, c= 299792.458 km/s, 1 day= 86400.0 s 
Table cut-offs 1: Elevation (-90.0deg=NO ),Airmass (>38.000=NO), Daylight (YES)
Table cut-offs 2: Solar elongation (  0.0,180.0=NO ),Local Hour Angle( 0.0=NO )
Table cut-offs 3: RA/DEC angular rate (     0.0=NO )                           
*******************************************************************************
Initial IAU76/J2000 heliocentric ecliptic osculating elements (au, days, deg.):
  EPOCH=  2458378.5 ! 2018-Sep-17.00 (TDB)         Residual RMS= .55339        
   EC= .2891632988519429   QR= 1.009650912138325   TP= 2458360.6433297051      
   OM= 171.0145363394364   W=  163.7983400129293   IN= 8.474307805886117       
  Equivalent ICRF heliocentric cartesian coordinates (au, au/d):
   X= 1.017757009008053E+00  Y=-8.967367621791844E-02  Z=-4.840656937149759E-02
  VX= 3.309922676318766E-03 VY= 1.832358809606965E-02 VZ= 4.854018792897502E-03
Asteroid physical parameters (km, seconds, rotational period in hours):        
   GM= n.a.                RAD= n.a.               ROTPER= n.a.                
   H= 25.9                 G= .150                 B-V= n.a.                   
                           ALBEDO= n.a.            STYP= n.a.                  
*******************************************************************************
 Date__(UT)__HR:MN     R.A._________(ICRF)_________DEC
******************************************************
$$SOE
 2018-Dec-22 06:02  m  03 04 39.795171 -06 06 03.83920
 2018-Dec-22 06:03  m  03 04 39.827139 -06 06 02.93028
 2018-Dec-22 06:04  m  03 04 39.859124 -06 06 02.02136
 2018-Dec-22 06:05  m  03 04 39.891128 -06 06 01.11243
 2018-Dec-22 06:06  m  03 04 39.923149 -06 06 00.20349
 2018-Dec-22 06:07  m  03 04 39.955187 -06 05 59.29454
 2018-Dec-22 06:08  m  03 04 39.987244 -06 05 58.38559
 2018-Dec-22 06:09  m  03 04 40.019318 -06 05 57.47662
 2018-Dec-22 06:10  m  03 04 40.051410 -06 05 56.56765
 2018-Dec-22 06:11  m  03 04 40.083520 -06 05 55.65867
 2018-Dec-22 06:12  m  03 04 40.115647 -06 05 54.74968
 2018-Dec-22 06:13  m  03 04 40.147793 -06 05 53.84068
 2018-Dec-22 06:14  m  03 04 40.179957 -06 05 52.93168
 2018-Dec-22 06:15  m  03 04 40.212138 -06 05 52.02266
 2018-Dec-22 06:16  m  03 04 40.244338 -06 05 51.11364
 2018-Dec-22 06:17  m  03 04 40.276556 -06 05 50.20461
 2018-Dec-22 06:18  m  03 04 40.308792 -06 05 49.29558
 2018-Dec-22 06:19  m  03 04 40.341045 -06 05 48.38654
 2018-Dec-22 06:20  m  03 04 40.373317 -06 05 47.47749
 2018-Dec-22 06:21  m  03 04 40.405608 -06 05 46.56843
 2018-Dec-22 06:22  m  03 04 40.437916 -06 05 45.65937
 2018-Dec-22 06:23  m  03 04 40.470243 -06 05 44.75030
 2018-Dec-22 06:24  m  03 04 40.502587 -06 05 43.84122
 2018-Dec-22 06:25  m  03 04 40.534951 -06 05 42.93214
 2018-Dec-22 06:26  m  03 04 40.567332 -06 05 42.02305
 2018-Dec-22 06:27  m  03 04 40.599732 -06 05 41.11395
 2018-Dec-22 06:28  m  03 04 40.632150 -06 05 40.20485
 2018-Dec-22 06:29  m  03 04 40.664586 -06 05 39.29574
 2018-Dec-22 06:30  m  03 04 40.697041 -06 05 38.38663
 2018-Dec-22 06:31  m  03 04 40.729515 -06 05 37.47751
 2018-Dec-22 06:32  m  03 04 40.762007 -06 05 36.56839
 2018-Dec-22 06:33  m  03 04 40.794517 -06 05 35.65925
 2018-Dec-22 06:34  m  03 04 40.827046 -06 05 34.75012
 2018-Dec-22 06:35  m  03 04 40.859593 -06 05 33.84098
 2018-Dec-22 06:36  m  03 04 40.892159 -06 05 32.93183
 2018-Dec-22 06:37  m  03 04 40.924744 -06 05 32.02268
 2018-Dec-22 06:38  m  03 04 40.957347 -06 05 31.11352
 2018-Dec-22 06:39  m  03 04 40.989969 -06 05 30.20436
 2018-Dec-22 06:40  m  03 04 41.022609 -06 05 29.29520
 2018-Dec-22 06:41  m  03 04 41.055268 -06 05 28.38603
 2018-Dec-22 06:42  m  03 04 41.087946 -06 05 27.47685
 2018-Dec-22 06:43  m  03 04 41.120643 -06 05 26.56767
 2018-Dec-22 06:44  m  03 04 41.153358 -06 05 25.65849
 2018-Dec-22 06:45  m  03 04 41.186092 -06 05 24.74930
 2018-Dec-22 06:46  m  03 04 41.218845 -06 05 23.84011
 2018-Dec-22 06:47  m  03 04 41.251617 -06 05 22.93092
 2018-Dec-22 06:48  m  03 04 41.284407 -06 05 22.02172
 2018-Dec-22 06:49  m  03 04 41.317216 -06 05 21.11252
 2018-Dec-22 06:50  m  03 04 41.350045 -06 05 20.20331
 2018-Dec-22 06:51  m  03 04 41.382892 -06 05 19.29410
 2018-Dec-22 06:52  m  03 04 41.415758 -06 05 18.38489
 2018-Dec-22 06:53  m  03 04 41.448643 -06 05 17.47568
 2018-Dec-22 06:54  m  03 04 41.481547 -06 05 16.56646
 2018-Dec-22 06:55  m  03 04 41.514469 -06 05 15.65724
 2018-Dec-22 06:56  m  03 04 41.547411 -06 05 14.74801
 2018-Dec-22 06:57  m  03 04 41.580372 -06 05 13.83879
 2018-Dec-22 06:58  m  03 04 41.613352 -06 05 12.92956
 2018-Dec-22 06:59  m  03 04 41.646351 -06 05 12.02033
 2018-Dec-22 07:00  m  03 04 41.679369 -06 05 11.11110
 2018-Dec-22 07:01  m  03 04 41.712405 -06 05 10.20186
 2018-Dec-22 07:02  m  03 04 41.745462 -06 05 09.29262
 2018-Dec-22 07:03  m  03 04 41.778537 -06 05 08.38339
 2018-Dec-22 07:04  m  03 04 41.811631 -06 05 07.47415
 2018-Dec-22 07:05  m  03 04 41.844744 -06 05 06.56490
 2018-Dec-22 07:06  m  03 04 41.877877 -06 05 05.65566
 2018-Dec-22 07:07  m  03 04 41.911028 -06 05 04.74642
 2018-Dec-22 07:08  m  03 04 41.944199 -06 05 03.83717
 2018-Dec-22 07:09  m  03 04 41.977389 -06 05 02.92793
 2018-Dec-22 07:10  m  03 04 42.010598 -06 05 02.01868
 2018-Dec-22 07:11  m  03 04 42.043826 -06 05 01.10943
 2018-Dec-22 07:12  m  03 04 42.077074 -06 05 00.20018
 2018-Dec-22 07:13  m  03 04 42.110341 -06 04 59.29093
 2018-Dec-22 07:14  m  03 04 42.143627 -06 04 58.38168
 2018-Dec-22 07:15  m  03 04 42.176932 -06 04 57.47243
 2018-Dec-22 07:16  m  03 04 42.210256 -06 04 56.56318
 2018-Dec-22 07:17  m  03 04 42.243600 -06 04 55.65393
 2018-Dec-22 07:18  m  03 04 42.276963 -06 04 54.74468
 2018-Dec-22 07:19  m  03 04 42.310345 -06 04 53.83543
 2018-Dec-22 07:20  m  03 04 42.343747 -06 04 52.92618
 2018-Dec-22 07:21  m  03 04 42.377168 -06 04 52.01693
 2018-Dec-22 07:22  m  03 04 42.410608 -06 04 51.10769
 2018-Dec-22 07:23  m  03 04 42.444067 -06 04 50.19844
 2018-Dec-22 07:24  m  03 04 42.477546 -06 04 49.28919
 2018-Dec-22 07:25  m  03 04 42.511044 -06 04 48.37995
 2018-Dec-22 07:26  m  03 04 42.544562 -06 04 47.47070
 2018-Dec-22 07:27  m  03 04 42.578099 -06 04 46.56146
 2018-Dec-22 07:28  m  03 04 42.611655 -06 04 45.65222
 2018-Dec-22 07:29  m  03 04 42.645230 -06 04 44.74298
 2018-Dec-22 07:30  m  03 04 42.678825 -06 04 43.83374
 2018-Dec-22 07:31  m  03 04 42.712439 -06 04 42.92450
 2018-Dec-22 07:32  m  03 04 42.746073 -06 04 42.01526
 2018-Dec-22 07:33  m  03 04 42.779726 -06 04 41.10603
 2018-Dec-22 07:34  m  03 04 42.813398 -06 04 40.19680
 2018-Dec-22 07:35  m  03 04 42.847090 -06 04 39.28757
 2018-Dec-22 07:36  m  03 04 42.880801 -06 04 38.37834
 2018-Dec-22 07:37  m  03 04 42.914531 -06 04 37.46912
 2018-Dec-22 07:38  m  03 04 42.948281 -06 04 36.55990
 2018-Dec-22 07:39  m  03 04 42.982050 -06 04 35.65068
 2018-Dec-22 07:40  m  03 04 43.015839 -06 04 34.74147
 2018-Dec-22 07:41  m  03 04 43.049647 -06 04 33.83225
 2018-Dec-22 07:42  m  03 04 43.083475 -06 04 32.92304
 2018-Dec-22 07:43  m  03 04 43.117321 -06 04 32.01384
 2018-Dec-22 07:44  m  03 04 43.151188 -06 04 31.10464
 2018-Dec-22 07:45  m  03 04 43.185073 -06 04 30.19544
 2018-Dec-22 07:46  m  03 04 43.218978 -06 04 29.28624
 2018-Dec-22 07:47  m  03 04 43.252903 -06 04 28.37705
 2018-Dec-22 07:48  m  03 04 43.286846 -06 04 27.46786
 2018-Dec-22 07:49  m  03 04 43.320809 -06 04 26.55868
 2018-Dec-22 07:50  m  03 04 43.354792 -06 04 25.64950
 2018-Dec-22 07:51  m  03 04 43.388794 -06 04 24.74033
 2018-Dec-22 07:52  m  03 04 43.422815 -06 04 23.83115
 2018-Dec-22 07:53  m  03 04 43.456856 -06 04 22.92199
 2018-Dec-22 07:54  m  03 04 43.490916 -06 04 22.01283
 2018-Dec-22 07:55  m  03 04 43.524996 -06 04 21.10367
 2018-Dec-22 07:56  m  03 04 43.559094 -06 04 20.19452
 2018-Dec-22 07:57  m  03 04 43.593213 -06 04 19.28537
 2018-Dec-22 07:58  m  03 04 43.627350 -06 04 18.37623
 2018-Dec-22 07:59  m  03 04 43.661507 -06 04 17.46710
 2018-Dec-22 08:00  m  03 04 43.695683 -06 04 16.55796
 2018-Dec-22 08:01  m  03 04 43.729879 -06 04 15.64884
 2018-Dec-22 08:02 Am  03 04 43.764094 -06 04 14.73972
 2018-Dec-22 08:03 Am  03 04 43.798328 -06 04 13.83061
 2018-Dec-22 08:04 Am  03 04 43.832582 -06 04 12.92150
